IRIDIUM 57              
1 25273U 98019B   24338.47399868  .00001081  00000+0  36835-3 0  9997
2 25273  86.3987 227.1840 0002130  81.1102 279.0336 14.35616631396706
IRIDIUM 63              
1 25286U 98021B   24338.49875064  .00001184  00000+0  39948-3 0  9995
2 25286  86.3999 164.1685 0001972  92.7419 267.4004 14.36223010395755
IRIDIUM 69              
1 25319U 98026A   24338.62057345  .00001115  00000+0  34396-3 0  9992
2 25319  86.4005 177.9781 0001614   6.2958 353.8262 14.40565856394905
IRIDIUM 71              
1 25320U 98026B   24338.58670442  .00001134  00000+0  34825-3 0  9996
2 25320  86.3998 172.7252 0003312  48.4378 311.7105 14.40804328395421
IRIDIUM 73              
1 25344U 98032C   24338.48250699  .00002033  00000+0  50710-3 0  9996
2 25344  86.4408 129.9227 0001508  78.5702 281.5673 14.51198811402170
IRIDIUM 82              
1 25467U 98051A   24338.62838819  .00029020  00000+0  11622-2 0  9998
2 25467  86.3745 204.8600 0106487 314.7078  44.5527 15.19735782394130
